{
  "links" : {
    "next" : "https://api.nasa.gov/neo/rest/v1/neo/browse?page=42&size=20&api_key=jqAGvNAwUIBu4fl9FSOjdm3V4F7hIglRzI6pdX9d",
    "prev" : "https://api.nasa.gov/neo/rest/v1/neo/browse?page=40&size=20&api_key=jqAGvNAwUIBu4fl9FSOjdm3V4F7hIglRzI6pdX9d",
    "self" : "https://api.nasa.gov/neo/rest/v1/neo/browse?page=41&size=20&api_key=jqAGvNAwUIBu4fl9FSOjdm3V4F7hIglRzI6pdX9d"
  },
  "page" : {
    "size" : 20,
    "total_elements" : 20750,
    "total_pages" : 1038,
    "number" : 41
  },
  "near_earth_objects" : [ {
    "links" : {
      "self" : "https://api.nasa.gov/neo/rest/v1/neo/3802093?api_key=jqAGvNAwUIBu4fl9FSOjdm3V4F7hIglRzI6pdX9d"
    },
    "neo_reference_id" : "3802093",
    "name" : "(2018 FV4)",
    "designation" : "2018 FV4",
    "nasa_jpl_url" : "http://ssd.jpl.nasa.gov/sbdb.cgi?sstr=3802093",
    "absolute_magnitude_h" : 23.8,
    "estimated_diameter" : {
      "kilometers" : {
        "estimated_diameter_min" : 0.046190746,
        "estimated_diameter_max" : 0.1032856481
      },
      "meters" : {
        "estimated_diameter_min" : 46.1907460282,
        "estimated_diameter_max" : 103.2856480504
      },
      "miles" : {
        "estimated_diameter_min" : 0.0287015901,
        "estimated_diameter_max" : 0.0641787064
      },
      "feet" : {
        "estimated_diameter_min" : 151.544447199,
        "estimated_diameter_max" : 338.8636855496
      }
    },
    "is_potentially_hazardous_asteroid" : false,
    "close_approach_data" : [ {
      "close_approach_date" : "2015-06-12",
      "epoch_date_close_approach" : 1434092400000,
      "relative_velocity" : {
        "kilometers_per_second" : "15.1355138369",
        "kilometers_per_hour" : "54487.8498127968",
        "miles_per_hour" : "33856.6309017348"
      },
      "miss_distance" : {
        "astronomical" : "0.3228405156",
        "lunar" : "125.5849609375",
        "kilometers" : "48296252",
        "miles" : "30009900"
      },
      "orbiting_body" : "Earth"
    }, {
      "close_approach_date" : "2018-04-29",
      "epoch_date_close_approach" : 1524985200000,
      "relative_velocity" : {
        "kilometers_per_second" : "6.5155998783",
        "kilometers_per_hour" : "23456.159561987",
        "miles_per_hour" : "14574.7453678357"
      },
      "miss_distance" : {
        "astronomical" : "0.0452582235",
        "lunar" : "17.6054496765",
        "kilometers" : "6770534",
        "miles" : "4207015"
      },
      "orbiting_body" : "Earth"
    }, {
      "close_approach_date" : "2021-03-18",
      "epoch_date_close_approach" : 1616050800000,
      "relative_velocity" : {
        "kilometers_per_second" : "15.5444358405",
        "kilometers_per_hour" : "55959.9690257705",
        "miles_per_hour" : "34771.3485315961"
      },
      "miss_distance" : {
        "astronomical" : "0.341999794",
        "lunar" : "133.0379180908",
        "kilometers" : "51162444",
        "miles" : "31790868"
      },
      "orbiting_body" : "Earth"
    } ],
    "orbital_data" : {
      "orbit_id" : "15",
      "orbit_determination_date" : "2018-05-19 06:31:49",
      "first_observation_date" : "2018-03-22",
      "last_observation_date" : "2018-05-11",
      "data_arc_in_days" : 50,
      "observations_used" : 62,
      "orbit_uncertainty" : "6",
      "minimum_orbit_intersection" : ".0453267",
      "jupiter_tisserand_invariant" : "3.627",
      "epoch_osculation" : "2458600.5",
      "eccentricity" : ".4875962713894907",
      "semi_major_axis" : "2.053256433417836",
      "inclination" : "5.045852247771589",
      "ascending_node_longitude" : "221.9892070644995",
      "orbital_period" : "1074.64052836145",
      "perihelion_distance" : "1.052096252276815",
      "perihelion_argument" : "354.8515656337067",
      "aphelion_distance" : "3.054416614558857",
      "perihelion_time" : "2458236.070325758620",
      "mean_anomaly" : "122.0823887285685",
      "mean_motion" : ".3349957409003617",
      "equinox" : "J2000",
      "orbit_class" : {
        "orbit_class_type" : "AMO",
        "orbit_class_range" : "1.017 AU < q (perihelion) < 1.3 AU",
        "orbit_class_description" : "Near-Earth asteroid orbits similar to that of 1221 Amor"
      }
    },
    "is_sentry_object" : false
  }, {
    "links" : {
      "self" : "https://api.nasa.gov/neo/rest/v1/neo/3825521?api_key=jqAGvNAwUIBu4fl9FSOjdm3V4F7hIglRzI6pdX9d"
    },
    "neo_reference_id" : "3825521",
    "name" : "(2018 LH16)",
    "designation" : "2018 LH16",
    "nasa_jpl_url" : "http://ssd.jpl.nasa.gov/sbdb.cgi?sstr=3825521",
    "absolute_magnitude_h" : 20.6,
    "estimated_diameter" : {
      "kilometers" : {
        "estimated_diameter_min" : 0.2016299194,
        "estimated_diameter_max" : 0.4508582062
      },
      "meters" : {
        "estimated_diameter_min" : 201.6299194428,
        "estimated_diameter_max" : 450.8582061718
      },
      "miles" : {
        "estimated_diameter_min" : 0.1252869847,
        "estimated_diameter_max" : 0.2801502144
      },
      "feet" : {
        "estimated_diameter_min" : 661.5155049046,
        "estimated_diameter_max" : 1479.1936371367
      }
    },
    "is_potentially_hazardous_asteroid" : false,
    "close_approach_data" : [ ],
    "orbital_data" : {
      "orbit_id" : "1",
      "orbit_determination_date" : "2018-07-06 06:54:53",
      "first_observation_date" : "2018-06-15",
      "last_observation_date" : "2018-06-17",
      "data_arc_in_days" : 2,
      "observations_used" : 7,
      "orbit_uncertainty" : "9",
      "minimum_orbit_intersection" : ".0797822",
      "jupiter_tisserand_invariant" : "3.359",
      "epoch_osculation" : "2458285.5",
      "eccentricity" : ".5388605785382741",
      "semi_major_axis" : "2.331764751117627",
      "inclination" : "1.700000474841011",
      "ascending_node_longitude" : "65.86701326796903",
      "orbital_period" : "1300.54542642559",
      "perihelion_distance" : "1.075268648315228",
      "perihelion_argument" : "315.6102960662013",
      "aphelion_distance" : "3.588260853920027",
      "perihelion_time" : "2458410.125179844895",
      "mean_anomaly" : "325.5028853029232",
      "mean_motion" : ".276806940138509",
      "equinox" : "J2000",
      "orbit_class" : {
        "orbit_class_type" : "AMO",
        "orbit_class_range" : "1.017 AU < q (perihelion) < 1.3 AU",
        "orbit_class_description" : "Near-Earth asteroid orbits similar to that of 1221 Amor"
      }
    },
    "is_sentry_object" : false
  }, {
    "links" : {
      "self" : "https://api.nasa.gov/neo/rest/v1/neo/3406336?api_key=jqAGvNAwUIBu4fl9FSOjdm3V4F7hIglRzI6pdX9d"
    },
    "neo_reference_id" : "3406336",
    "name" : "(2008 EH85)",
    "designation" : "2008 EH85",
    "nasa_jpl_url" : "http://ssd.jpl.nasa.gov/sbdb.cgi?sstr=3406336",
    "absolute_magnitude_h" : 23.8,
    "estimated_diameter" : {
      "kilometers" : {
        "estimated_diameter_min" : 0.046190746,
        "estimated_diameter_max" : 0.1032856481
      },
      "meters" : {
        "estimated_diameter_min" : 46.1907460282,
        "estimated_diameter_max" : 103.2856480504
      },
      "miles" : {
        "estimated_diameter_min" : 0.0287015901,
        "estimated_diameter_max" : 0.0641787064
      },
      "feet" : {
        "estimated_diameter_min" : 151.544447199,
        "estimated_diameter_max" : 338.8636855496
      }
    },
    "is_potentially_hazardous_asteroid" : false,
    "close_approach_data" : [ {
      "close_approach_date" : "2008-03-23",
      "epoch_date_close_approach" : 1206255600000,
      "relative_velocity" : {
        "kilometers_per_second" : "13.8571749656",
        "kilometers_per_hour" : "49885.8298761755",
        "miles_per_hour" : "30997.1146805603"
      },
      "miss_distance" : {
        "astronomical" : "0.1945926439",
        "lunar" : "75.6965332031",
        "kilometers" : "29110644",
        "miles" : "18088516"
      },
      "orbiting_body" : "Earth"
    } ],
    "orbital_data" : {
      "orbit_id" : "6",
      "orbit_determination_date" : "2017-04-06 09:03:58",
      "first_observation_date" : "2008-03-13",
      "last_observation_date" : "2008-03-15",
      "data_arc_in_days" : 2,
      "observations_used" : 20,
      "orbit_uncertainty" : "9",
      "minimum_orbit_intersection" : ".0765144",
      "jupiter_tisserand_invariant" : "5.432",
      "epoch_osculation" : "2454539.5",
      "eccentricity" : ".2659102493766221",
      "semi_major_axis" : "1.126161762624949",
      "inclination" : "25.2262008688622",
      "ascending_node_longitude" : "352.3181302722112",
      "orbital_period" : "436.5154230446025",
      "perihelion_distance" : ".8267038074869327",
      "perihelion_argument" : "301.049974474162",
      "aphelion_distance" : "1.425619717762966",
      "perihelion_time" : "2454649.589174690559",
      "mean_anomaly" : "269.2080123717606",
      "mean_motion" : ".8247131280931068",
      "equinox" : "J2000",
      "orbit_class" : {
        "orbit_class_type" : "APO",
        "orbit_class_range" : "a (semi-major axis) > 1.0 AU; q (perihelion) < 1.017 AU",
        "orbit_class_description" : "Near-Earth asteroid orbits which cross the Earth’s orbit similar to that of 1862 Apollo"
      }
    },
    "is_sentry_object" : false
  } ]
}